QIANFAN-41              
1 62242U 24232F   26001.75948389  .00000126  00000+0  17608-3 0  9994
2 62242  89.0006  39.1763 0015618 129.2596 230.9944 13.50981668101959
QIANFAN-42              
1 62243U 24232G   26001.79261631  .00000511  00000+0  21422-3 0  9994
2 62243  88.9998  35.0651 0015784  27.2767 332.9251 14.24501973104226
QIANFAN-43              
1 62244U 24232H   26001.75533998  .00000123  00000+0  17219-3 0  9997
2 62244  89.0011  39.2429 0017030 134.4114 225.8435 13.50980560 70561
QIANFAN-44              
1 62245U 24232J   26001.81707946  .00000114  00000+0  15779-3 0  9990
2 62245  89.0008  39.0470 0015312 131.0616 229.1861 13.50982826102049
QIANFAN-45              
1 62246U 24232K   26001.78418801  .00000125  00000+0  17456-3 0  9992
2 62246  89.0012  39.1976 0015979 131.0059 229.2477 13.50978820101960
QIANFAN-46              
1 62247U 24232L   26001.80884118  .00000127  00000+0  17713-3 0  9992
2 62247  89.0008  39.2633 0015919 135.9577 224.2845 13.50980765101920
QIANFAN-47              
1 62248U 24232M   26001.81299527  .00000113  00000+0  15594-3 0  9998
2 62248  89.0004  39.1950 0016367 135.2967 224.9506 13.50980938101958
QIANFAN-48              
1 62249U 24232N   26001.77592429  .00000109  00000+0  15046-3 0  9998
2 62249  89.0008  39.2014 0018549 138.3755 221.8812 13.50982570101958
